start=new Date('2022-06-18T00:00:00.000Z').valueOf();
sats=[{"SITE":"AFETR","GP_ID":"206237597","APOAPSIS":"548.277","OBJECT_NAME":"STARLINK-1860","OBJECT_TYPE":"PAYLOAD","CLASSIFICATION_TYPE":"U","MEAN_ELEMENT_THEORY":"SGP4","MEAN_MOTION_DDOT":"0.0000000000000","TLE_LINE1":"1 47147U 20088AB  22166.66164162 -.00000667  00000-0 -25856-4 0  9991","NORAD_CAT_ID":"47147","BSTAR":"-0.00002585600000","RCS_SIZE":"LARGE","FILE":"3496999","INCLINATION":"53.0538","LAUNCH_DATE":"2020-11-25","COUNTRY_CODE":"US","EPOCH":"2022-06-15T15:52:45.835968","ELEMENT_SET_NO":"999","RA_OF_ASC_NODE":"300.5013","TLE_LINE2":"2 47147  53.0538 300.5013 0001520  56.5798 303.5336 15.06396420 86406","PERIOD":"95.592","ECCENTRICITY":"0.00015200","ARG_OF_PERICENTER":"56.5798","TIME_SYSTEM":"UTC","PERIAPSIS":"546.172","MEAN_MOTION_DOT":"-0.00000667","MEAN_MOTION":"15.06396420","DECAY_DATE":null,"EPHEMERIS_TYPE":"0","REV_AT_EPOCH":"8640","MEAN_ANOMALY":"303.5336","REF_FRAME":"TEME","SEMIMAJOR_AXIS":"6925.360","CENTER_NAME":"EARTH","OBJECT_ID":"2020-088AB"},{"LAUNCH_DATE":"2020-11-25","FILE":"3497002","INCLINATION":"53.0566","RA_OF_ASC_NODE":"288.8269","COUNTRY_CODE":"US","EPOCH":"2022-06-16T00:50:10.163904","ELEMENT_SET_NO":"999","TLE_LINE2":"2 47148  53.0566 288.8269 0001468  61.6247 298.4890 15.06402869 86598","ARG_OF_PERICENTER":"61.6247","PERIOD":"95.592","ECCENTRICITY":"0.00014680","TIME_SYSTEM":"UTC","MEAN_ANOMALY":"298.4890","REV_AT_EPOCH":"8659","MEAN_MOTION_DOT":"-0.00001040","PERIAPSIS":"546.188","MEAN_MOTION":"15.06402869","EPHEMERIS_TYPE":"0","DECAY_DATE":null,"SEMIMAJOR_AXIS":"6925.340","REF_FRAME":"TEME","OBJECT_ID":"2020-088AC","CENTER_NAME":"EARTH","APOAPSIS":"548.221","SITE":"AFETR","GP_ID":"206287603","OBJECT_NAME":"STARLINK-1861","CLASSIFICATION_TYPE":"U","OBJECT_TYPE":"PAYLOAD","MEAN_ELEMENT_THEORY":"SGP4","MEAN_MOTION_DDOT":"0.0000000000000","TLE_LINE1":"1 47148U 20088AC  22167.03483986 -.00001040  00000-0 -50898-4 0  9992","NORAD_CAT_ID":"47148","RCS_SIZE":"LARGE","BSTAR":"-0.00005089800000"},{"GP_ID":"206236596","SITE":"AFETR","APOAPSIS":"548.254","OBJECT_NAME":"STARLINK-1862","CLASSIFICATION_TYPE":"U","OBJECT_TYPE":"PAYLOAD","MEAN_MOTION_DDOT":"0.0000000000000","MEAN_ELEMENT_THEORY":"SGP4","NORAD_CAT_ID":"47149","TLE_LINE1":"1 47149U 20088AD  22166.66533277 -.00002168  00000-0 -12669-3 0  9995","BSTAR":"-0.00012669000000","RCS_SIZE":"LARGE","INCLINATION":"53.0557","FILE":"3496999","LAUNCH_DATE":"2020-11-25","ELEMENT_SET_NO":"999","COUNTRY_CODE":"US","EPOCH":"2022-06-15T15:58:04.751328","RA_OF_ASC_NODE":"300.4717","TIME_SYSTEM":"UTC","ARG_OF_PERICENTER":"85.8053","TLE_LINE2":"2 47149  53.0557 300.4717 0001510  85.8053 274.3109 15.06401569 87132","PERIOD":"95.592","ECCENTRICITY":"0.00015100","DECAY_DATE":null,"EPHEMERIS_TYPE":"0","PERIAPSIS":"546.163","MEAN_MOTION":"15.06401569","MEAN_MOTION_DOT":"-0.00002168","REV_AT_EPOCH":"8713","MEAN_ANOMALY":"274.3109","REF_FRAME":"TEME","SEMIMAJOR_AXIS":"6925.344","CENTER_NAME":"EARTH","OBJECT_ID":"2020-088AD"},{"NORAD_CAT_ID":"47150","TLE_LINE1":"1 47150U 20088AE  22166.45984575 -.00001894  00000-0 -10831-3 0  9999","BSTAR":"-0.00010831000000","RCS_SIZE":"LARGE","OBJECT_TYPE":"PAYLOAD","CLASSIFICATION_TYPE":"U","MEAN_MOTION_DDOT":"0.0000000000000","MEAN_ELEMENT_THEORY":"SGP4","GP_ID":"206207158","SITE":"AFETR","APOAPSIS":"548.318","OBJECT_NAME":"STARLINK-1863","CENTER_NAME":"EARTH","OBJECT_ID":"2020-088AE","DECAY_DATE":null,"EPHEMERIS_TYPE":"0","PERIAPSIS":"546.204","MEAN_MOTION_DOT":"-0.00001894","MEAN_MOTION":"15.06384456","MEAN_ANOMALY":"280.9079","REV_AT_EPOCH":"8651","REF_FRAME":"TEME","SEMIMAJOR_AXIS":"6925.396","ELEMENT_SET_NO":"999","COUNTRY_CODE":"US","EPOCH":"2022-06-15T11:02:10.672800","RA_OF_ASC_NODE":"291.3892","TIME_SYSTEM":"UTC","ARG_OF_PERICENTER":"79.2082","TLE_LINE2":"2 47150  53.0546 291.3892 0001526  79.2082 280.9079 15.06384456 86515","PERIOD":"95.593","ECCENTRICITY":"0.00015260","INCLINATION":"53.0546","FILE":"3496794","LAUNCH_DATE":"2020-11-25"},{"INCLINATION":"53.0541","FILE":"3496794","LAUNCH_DATE":"2020-11-25","TIME_SYSTEM":"UTC","TLE_LINE2":"2 47151  53.0541 301.1124 0001374  79.7958 280.3186 15.06394871 86376","PERIOD":"95.592","ARG_OF_PERICENTER":"79.7958","ECCENTRICITY":"0.00013740","ELEMENT_SET_NO":"999","EPOCH":"2022-06-15T12:36:22.896864","COUNTRY_CODE":"US","RA_OF_ASC_NODE":"301.1124","REF_FRAME":"TEME","SEMIMAJOR_AXIS":"6925.364","DECAY_DATE":null,"EPHEMERIS_TYPE":"0","MEAN_MOTION_DOT":"-0.00002235","PERIAPSIS":"546.278","MEAN_MOTION":"15.06394871","MEAN_ANOMALY":"280.3186","REV_AT_EPOCH":"8637","CENTER_NAME":"EARTH","OBJECT_ID":"2020-088AF","OBJECT_NAME":"STARLINK-1864","GP_ID":"206207903","SITE":"AFETR","APOAPSIS":"548.181","MEAN_MOTION_DDOT":"0.0000000000000","MEAN_ELEMENT_THEORY":"SGP4","OBJECT_TYPE":"PAYLOAD","CLASSIFICATION_TYPE":"U","BSTAR":"-0.00013121000000","RCS_SIZE":"LARGE","NORAD_CAT_ID":"47151","TLE_LINE1":"1 47151U 20088AF  22166.52526501 -.00002235  00000-0 -13121-3 0  9994"},{"CLASSIFICATION_TYPE":"U","OBJECT_TYPE":"PAYLOAD","MEAN_ELEMENT_THEORY":"SGP4","MEAN_MOTION_DDOT":"0.0000000000000","SITE":"AFETR","GP_ID":"206213157","APOAPSIS":"547.418","OBJECT_NAME":"STARLINK-1866","TLE_LINE1":"1 47152U 20088AG  22166.84211973  .00102310  00000-0  67336-2 0  9993","NORAD_CAT_ID":"47152","BSTAR":"0.00673360000000","RCS_SIZE":"LARGE","COUNTRY_CODE":"US","EPOCH":"2022-06-15T20:12:39.144672","ELEMENT_SET_NO":"999","RA_OF_ASC_NODE":"299.6776","TLE_LINE2":"2 47152  53.0531 299.6776 0001627  87.3828 272.7347 15.06701034 86672","PERIOD":"95.573","ARG_OF_PERICENTER":"87.3828","ECCENTRICITY":"0.00016270","TIME_SYSTEM":"UTC","FILE":"3496892","INCLINATION":"53.0531","LAUNCH_DATE":"2020-11-25","CENTER_NAME":"EARTH","OBJECT_ID":"2020-088AG","PERIAPSIS":"545.164","MEAN_MOTION_DOT":"0.00102310","MEAN_MOTION":"15.06701034","DECAY_DATE":null,"EPHEMERIS_TYPE":"0","MEAN_ANOMALY":"272.7347","REV_AT_EPOCH":"8667","REF_FRAME":"TEME","SEMIMAJOR_AXIS":"6924.426"},{"LAUNCH_DATE":"2020-11-25","FILE":"3497002","INCLINATION":"53.0535","TLE_LINE2":"2 47153  53.0535 304.0394 0001823  61.8840 298.2333 15.06363679 86388","ARG_OF_PERICENTER":"61.8840","PERIOD":"95.594","ECCENTRICITY":"0.00018230","TIME_SYSTEM":"UTC","RA_OF_ASC_NODE":"304.0394","COUNTRY_CODE":"US","EPOCH":"2022-06-16T00:56:12.241248","ELEMENT_SET_NO":"999","SEMIMAJOR_AXIS":"6925.460","REF_FRAME":"TEME","REV_AT_EPOCH":"8638","MEAN_ANOMALY":"298.2333","PERIAPSIS":"546.062","MEAN_MOTION_DOT":"0.00010379","MEAN_MOTION":"15.06363679","EPHEMERIS_TYPE":"0","DECAY_DATE":null,"OBJECT_ID":"2020-088AH","CENTER_NAME":"EARTH","OBJECT_NAME":"STARLINK-1867","APOAPSIS":"548.587","SITE":"AFETR","GP_ID":"206287852","MEAN_ELEMENT_THEORY":"SGP4","MEAN_MOTION_DDOT":"0.0000000000000","CLASSIFICATION_TYPE":"U","OBJECT_TYPE":"PAYLOAD","RCS_SIZE":"LARGE","BSTAR":"0.00071531000000","TLE_LINE1":"1 47153U 20088AH  22167.03903057  .00010379  00000-0  71531-3 0  9993","NORAD_CAT_ID":"47153"},{"RA_OF_ASC_NODE":"290.6942","ELEMENT_SET_NO":"999","EPOCH":"2022-06-15T14:45:05.583744","COUNTRY_CODE":"US","TIME_SYSTEM":"UTC","ECCENTRICITY":"0.00019260","TLE_LINE2":"2 47154  53.0550 290.6942 0001926  53.4615 306.6551 15.06394764 86538","PERIOD":"95.592","ARG_OF_PERICENTER":"53.4615","LAUNCH_DATE":"2020-11-25","INCLINATION":"53.0550","FILE":"3496999","OBJECT_ID":"2020-088AJ","CENTER_NAME":"EARTH","MEAN_ANOMALY":"306.6551","REV_AT_EPOCH":"8653","EPHEMERIS_TYPE":"0","DECAY_DATE":null,"MEAN_MOTION_DOT":"-0.00000808","PERIAPSIS":"545.896","MEAN_MOTION":"15.06394764","SEMIMAJOR_AXIS":"6925.365","REF_FRAME":"TEME","OBJECT_TYPE":"PAYLOAD","CLASSIFICATION_TYPE":"U","MEAN_MOTION_DDOT":"0.0000000000000","MEAN_ELEMENT_THEORY":"SGP4","APOAPSIS":"548.563","GP_ID":"206236347","SITE":"AFETR","OBJECT_NAME":"STARLINK-1868","NORAD_CAT_ID":"47154","TLE_LINE1":"1 47154U 20088AJ  22166.61464796 -.00000808  00000-0 -35373-4 0  9992","RCS_SIZE":"LARGE","BSTAR":"-0.00003537300000"},{"OBJECT_ID":"2020-088AK","CENTER_NAME":"EARTH","MEAN_ANOMALY":"270.1897","REV_AT_EPOCH":"8647","DECAY_DATE":null,"EPHEMERIS_TYPE":"0","MEAN_MOTION":"15.06387431","PERIAPSIS":"546.195","MEAN_MOTION_DOT":"-0.00001166","SEMIMAJOR_AXIS":"6925.387","REF_FRAME":"TEME","RA_OF_ASC_NODE":"311.4417","ELEMENT_SET_NO":"999","EPOCH":"2022-06-15T10:48:53.541216","COUNTRY_CODE":"US","TIME_SYSTEM":"UTC","TLE_LINE2":"2 47155  53.0558 311.4417 0001527  89.9267 270.1897 15.06387431 86474","PERIOD":"95.593","ARG_OF_PERICENTER":"89.9267","ECCENTRICITY":"0.00015270","LAUNCH_DATE":"2020-11-25","INCLINATION":"53.0558","FILE":"3496894","NORAD_CAT_ID":"47155","TLE_LINE1":"1 47155U 20088AK  22166.45061969 -.00001166  00000-0 -59428-4 0  9995","RCS_SIZE":"LARGE","BSTAR":"-0.00005942800000","OBJECT_TYPE":"PAYLOAD","CLASSIFICATION_TYPE":"U","MEAN_MOTION_DDOT":"0.0000000000000","MEAN_ELEMENT_THEORY":"SGP4","APOAPSIS":"548.310","GP_ID":"206213293","SITE":"AFETR","OBJECT_NAME":"STARLINK-1869"},{"REF_FRAME":"TEME","SEMIMAJOR_AXIS":"6925.404","DECAY_DATE":null,"EPHEMERIS_TYPE":"0","MEAN_MOTION":"15.06381934","PERIAPSIS":"546.295","MEAN_MOTION_DOT":"-0.00000563","MEAN_ANOMALY":"277.0737","REV_AT_EPOCH":"8636","CENTER_NAME":"EARTH","OBJECT_ID":"2020-088AM","INCLINATION":"53.0560","FILE":"3496794","LAUNCH_DATE":"2020-11-25","TIME_SYSTEM":"UTC","PERIOD":"95.593","TLE_LINE2":"2 47157  53.0560 301.5563 0001406  83.0411 277.0737 15.06381934 86362","ARG_OF_PERICENTER":"83.0411","ECCENTRICITY":"0.00014060","ELEMENT_SET_NO":"999","COUNTRY_CODE":"US","EPOCH":"2022-06-15T10:07:46.400448","RA_OF_ASC_NODE":"301.5563","BSTAR":"-0.00001888800000","RCS_SIZE":"LARGE","NORAD_CAT_ID":"47157","TLE_LINE1":"1 47157U 20088AM  22166.42206482 -.00000563  00000-0 -18888-4 0  9990","OBJECT_NAME":"STARLINK-1871","GP_ID":"206208151","SITE":"AFETR","APOAPSIS":"548.243","MEAN_MOTION_DDOT":"0.0000000000000","MEAN_ELEMENT_THEORY":"SGP4","OBJECT_TYPE":"PAYLOAD","CLASSIFICATION_TYPE":"U"}];
